STARLINK-33955          
1 63902U 25095N   25146.50001157  .00044147  00000+0  28899-3 0  9996
2 63902  43.0002   2.0627 0001905 265.0242 347.6353 15.75038962  3813
STARLINK-34097          
1 63903U 25095P   25146.50001157  .00057273  00000+0  37378-3 0  9993
2 63903  43.0002   2.0576 0001788 257.7565 356.8203 15.75016458  3814
STARLINK-34092          
1 63904U 25095Q   25146.16668981 -.00007989  00000+0 -48943-4 0  9992
2 63904  43.0005   4.0766 0002099 274.8813 249.3209 15.75036551  3754
STARLINK-34114          
1 63905U 25095R   25146.50001157  .00084349  00000+0  54743-3 0  9994
2 63905  43.0003   2.0480 0002068 251.8003   6.6109 15.75009060  3811
STARLINK-33770          
1 63906U 25095S   25146.50001157  .00092221  00000+0  59799-3 0  9999
2 63906  43.0002   2.0434 0001848 257.5044   2.8252 15.74997309  3811
STARLINK-34106          
1 63907U 25095T   25146.50001157  .00035977  00000+0  23646-3 0  9997
2 63907  43.0002   2.0388 0001671 259.6719   2.5780 15.75024776  3819
STARLINK-34083          
1 63908U 25095U   25146.50001157  .00073656  00000+0  47902-3 0  9995
2 63908  43.0003   2.0337 0001909 257.6106   6.5577 15.75009767  3818
STARLINK-34066          
1 63909U 25095V   25146.16668981  .00027505  00000+0  18169-3 0  9997
2 63909  43.0004   4.0527 0002018 275.6268 258.1588 15.75024037  3751
STARLINK-34071          
1 63910U 25095W   25146.50001157  .00072732  00000+0  47309-3 0  9993
2 63910  43.0003   2.0244 0001817 257.2383  10.7509 15.75010577  3812
STARLINK-34038          
1 63911U 25095X   25146.50001157  .00023184  00000+0  15356-3 0  9998
2 63911  43.0002   2.0194 0001618 264.5608   5.3420 15.75047996  3813
STARLINK-34031          
1 63912U 25095Y   25146.50001157  .00029917  00000+0  19725-3 0  9993
2 63912  43.0003   2.0147 0001346 285.9653 345.8592 15.75030234  3817
STARLINK-34070          
1 63913U 25095Z   25146.50001157  .00060940  00000+0  39734-3 0  9997
2 63913  43.0001   2.0093 0001652 262.4799  11.2692 15.75016775  3816
STARLINK-34068          
1 63914U 25095AA  25146.50001157  .00062130  00000+0  40507-3 0  9991
2 63914  43.0001   2.0044 0001682 265.3650  10.2953 15.75011929  3819
STARLINK-34076          
1 63915U 25095AB  25146.50001157  .00003454  00000+0  25579-4 0  9999
2 63915  43.0001   1.9998 0001843 278.3873 359.1890 15.75047876  3811
STARLINK-33910          
1 63916U 25095AC  25146.16668981  .00107367  00000+0  69509-3 0  9994
2 63916  43.0002   4.0182 0001638 277.9224 269.2943 15.74976133  3758
STARLINK-34075          
1 63917U 25095AD  25146.50001157  .00007631  00000+0  52718-4 0  9997
2 63917  43.0001   1.9899 0001638 269.6063  11.7952 15.75048939  3810
YAOGAN-40 02A           
1 63918U 25096A   25145.96894281  .00000151  00000+0  71892-4 0  9990
2 63918  85.9953   1.5739 0001851  92.7719 267.3676 14.12338199  1912
YAOGAN-40 02B           
1 63919U 25096B   25144.05616768  .00000188  00000+0  88994-4 0  9993
2 63919  85.9956   2.4308 0007473 357.2860   2.8282 14.13922925  1642
YAOGAN-40 02C           
1 63920U 25096C   25143.93806808  .00000314  00000+0  11104-3 0  9996
2 63920  85.9952   2.4199 0013606 249.7174 170.1345 14.31337582 20375
CZ-6A R/B               
1 63921U 25096D   25145.91968977  .00000323  00000+0  12657-3 0  9997
2 63921  85.9930   1.5400 0012322 205.0048 155.0547 14.26290627  1902
CZ-6A R/B               
1 63922U 25096E   25145.89554960  .00000440  00000+0  76769-4 0  9993
2 63922  86.0182   1.2124 0070464  21.7019 338.7152 14.63711418  2041
CZ-6A DEB               
1 63923U 25096F   25145.91267182 -.00000352  00000+0 -15276-3 0  9993
2 63923  85.9933   1.5365 0010764 220.0110 140.0289 14.26981958  1914
TJS-19                  
1 63924U 25097A   25145.74905912 -.00000271  00000+0  00000+0 0  9990
2 63924   3.9875 312.8049 0001435 128.7350 212.9530  1.00276507   251
CZ-3C R/B               
1 63925U 25097B   25145.00042782  .00197337 -42749-4  24004-3 0  9992
2 63925  28.5940 135.5978 7277681 186.5767 151.8136  2.35549829   283
STARLINK-34012          
1 63926U 25098A   25146.16668981 -.01537981  00000+0 -16806-1 0  9990
2 63926  69.9999 288.1490 0003383 268.7904 185.5655 15.66002495  3268
STARLINK-33956          
1 63927U 25098B   25146.16668981 -.01536917  00000+0 -16794-1 0  9995
2 63927  69.9999 288.1459 0003391 268.6722 187.9930 15.66000894  3218
STARLINK-33997          
1 63928U 25098C   25146.16668981 -.01530956  00000+0 -16722-1 0  9994
2 63928  69.9999 288.1426 0003472 269.6439 189.3280 15.65998597  3106
STARLINK-33989          
1 63929U 25098D   25146.16668981 -.01534672  00000+0 -16766-1 0  9992
2 63929  69.9998 288.1403 0003516 269.4810 191.7992 15.66000127  3214
STARLINK-33980          
1 63930U 25098E   25146.16668981 -.01534071  00000+0 -16759-1 0  9999
2 63930  69.9998 288.1378 0003442 272.7046 190.8823 15.66000560  3262
STARLINK-33994          
1 63931U 25098F   25146.16668981 -.01533697  00000+0 -16756-1 0  9990
2 63931  69.9998 288.1343 0003288 270.7770 195.1173 15.66000162  3001
STARLINK-33971          
1 63932U 25098G   25146.16668981 -.01536426  00000+0 -16788-1 0  9999
2 63932  69.9998 288.1317 0003379 269.3564 198.8468 15.66001040  3103
STARLINK-33877          
1 63933U 25098H   25146.16668981 -.01539591  00000+0 -16823-1 0  9996
2 63933  69.9998 288.1289 0003485 268.9583 201.5488 15.66005155  3000
STARLINK-33895          
1 63934U 25098J   25146.16668981 -.01532984  00000+0 -16746-1 0  9990
2 63934  69.9997 288.1264 0003442 268.8241 203.9927 15.66000138  3107
STARLINK-34005          
1 63935U 25098K   25146.16668981 -.01532682  00000+0 -16744-1 0  9994
2 63935  69.9998 288.1235 0003353 273.5755 201.5511 15.65998751  3278
STARLINK-34027          
1 63936U 25098L   25146.16668981 -.01536363  00000+0 -16787-1 0  9992
2 63936  69.9998 288.1209 0003301 269.9799 207.4518 15.66002348  3002
STARLINK-34035          
1 63937U 25098M   25146.16668981 -.01537408  00000+0 -16799-1 0  9997
2 63937  69.9997 288.1182 0003388 269.2559 210.4843 15.66002412  3225
STARLINK-33988          
1 63938U 25098N   25146.16668981 -.01535770  00000+0 -16778-1 0  9995
2 63938  69.9997 288.1158 0003581 272.6318 209.4164 15.66001390  3278
STARLINK-34020          
1 63939U 25098P   25146.16668981 -.01534700  00000+0 -16766-1 0  9995
2 63939  69.9997 288.1123 0003459 269.2522 215.1025 15.66001365  3276
STARLINK-34021          
1 63940U 25098Q   25146.16668981 -.01542954  00000+0 -16865-1 0  9997
2 63940  69.9998 288.1095 0003301 269.5966 217.0655 15.66006216  3223
STARLINK-34004          
1 63941U 25098R   25146.16668981 -.01540118  00000+0 -16830-1 0  9990
2 63941  69.9998 288.1066 0003478 269.6780 219.2922 15.66004436  3113
STARLINK-34014          
1 63942U 25098S   25146.16668981 -.01538875  00000+0 -16815-1 0  9991
2 63942  69.9998 288.1036 0003525 272.6747 218.6035 15.66003543  3173
STARLINK-33985          
1 63943U 25098T   25146.16668981 -.01540576  00000+0 -16836-1 0  9996
2 63943  69.9998 288.1014 0003389 269.5882 223.9969 15.66004978  3171
STARLINK-33996          
1 63944U 25098U   25146.16668981 -.01540904  00000+0 -16842-1 0  9999
2 63944  69.9999 288.0978 0003203 269.4531 226.4404 15.66004368  3160
STARLINK-34036          
1 63945U 25098V   25146.16668981 -.01536450  00000+0 -16788-1 0  9990
2 63945  69.9997 288.0954 0003309 274.0866 224.1139 15.66002343  2927
STARLINK-34039          
1 63946U 25098W   25146.16668981 -.01541318  00000+0 -16845-1 0  9994
2 63946  69.9998 288.0934 0003410 274.2172 226.2914 15.66004836  3229
STARLINK-34034          
1 63947U 25098X   25146.16668981 -.01541853  00000+0 -16854-1 0  9999
2 63947  69.9997 288.0904 0003152 271.1641 231.6530 15.66004427  3170
STARLINK-33983          
1 63948U 25098Y   25146.16668981 -.01527363  00000+0 -16685-1 0  9992
2 63948  69.9997 288.0876 0003420 268.3070 236.8314 15.65989036  3221
STARLINK-33993          
1 63949U 25098Z   25146.16668981 -.01542046  00000+0 -16853-1 0  9995
2 63949  69.9996 288.0847 0003468 269.9839 237.4479 15.66005418  3224
STARLINK-33962          
1 63950U 25098AA  25146.16668981 -.01537642  00000+0 -16804-1 0  9999
2 63950  69.9997 288.0822 0003113 267.9633 241.7753 15.66002662  3273
STARLINK-33998          
1 63951U 25098AB  25146.16668981 -.01545794  00000+0 -16899-1 0  9991
2 63951  69.9997 288.0799 0003206 267.6888 244.3556 15.66008524  3227
STARLINK-34159          
1 63952U 25099A   25146.50001157 -.00356165  00000+0 -24019-2 0  9992
2 63952  43.0003   1.8562 0001790 273.7699  10.1323 15.75157650  3273
STARLINK-34137          
1 63953U 25099B   25146.50001157 -.00302288  00000+0 -20274-2 0  9999
2 63953  43.0001   1.8513 0001758 268.3173  17.4856 15.75134046  3274
STARLINK-33974          
1 63954U 25099C   25146.50001157 -.00294760  00000+0 -19753-2 0  9995
2 63954  43.0002   1.8464 0002140 250.8206  36.8996 15.75129629  3271
STARLINK-34170          
1 63955U 25099D   25145.83335648 -.00011457  00000+0 -71570-4 0  9993
2 63955  43.0003   5.8885 0002103 269.9543 195.0423 15.75037955  3181
STARLINK-34187          
1 63956U 25099E   25146.50001157 -.00296213  00000+0 -19842-2 0  9991
2 63956  43.0002   1.8369 0001946 262.4148  29.1227 15.75144317  3277
STARLINK-34142          
1 63957U 25099F   25146.50001157 -.00307228  00000+0 -20597-2 0  9990
2 63957  43.0001   1.8317 0001879 268.0231  25.4189 15.75156376  3274
STARLINK-34144          
1 63958U 25099G   25146.50001157 -.00383399  00000+0 -25921-2 0  9990
2 63958  43.0002   1.8271 0002103 253.9198  41.4519 15.75172816  3330
STARLINK-34099          
1 63959U 25099H   25145.83335648  .00011614  00000+0  78642-4 0  9997
2 63959  43.0002   5.8691 0002120 263.3819 209.2922 15.75028387  3183
STARLINK-34107          
1 63960U 25099J   25146.16668981 -.00088030  00000+0 -57502-3 0  9994
2 63960  43.0003   3.8404 0001814 262.9035 304.0329 15.75074488  3223
